ATLAS CENTAUR R/B       
1 06155U 72065B   25304.48797770  .00001821  00000+0  25372-3 0  9993
2 06155  35.0028 342.6690 0033787   2.2962 357.7889 14.77239010822144
SL-8 R/B                
1 08459U 75112B   25304.60583675  .00000382  00000+0  13442-3 0  9995
2 08459  74.0599 256.3521 0015253  14.9874 345.1729 14.38103787613312
SL-3 R/B                
1 10114U 77057B   25304.58272213  .00013993  00000+0  33405-3 0  9999
2 10114  97.5676 106.3173 0008487  36.5385 323.6438 15.41614310648415
SEASAT 1                
1 10967U 78064A   25304.62166301  .00000535  00000+0  18843-3 0  9996
2 10967 108.0049 214.6906 0002584 261.5832  98.5020 14.45989308487858
SL-14 R/B               
1 11267U 79011B   25304.26067476  .00000911  00000+0  87814-4 0  9999
2 11267  82.5262 219.3214 0017349 126.1716 234.1112 14.91689506509483
SL-8 R/B                
1 11574U 79089B   25304.52442500  .00000413  00000+0  13295-3 0  9997
2 11574  74.0689 330.1144 0015559 180.0942 180.0214 14.42240302417481
SL-14 R/B               
1 11672U 80005B   25304.59137535  .00001074  00000+0  10676-3 0  9996
2 11672  82.5144  69.6629 0014649 230.7363 129.2558 14.90703346457251
SL-8 R/B                
1 12139U 81003B   25304.54376654  .00025713  00000+0  72142-3 0  9998
2 12139  82.9330  48.9681 0284244 266.1588  90.7103 15.04743476295219
SL-3 R/B                
1 12465U 81046B   25304.62706360  .00015807  00000+0  41459-3 0  9997
2 12465  81.2311  84.2600 0020850 107.9470 252.4046 15.38305850418564
METEOR PRIRODA          
1 12585U 81065A   25304.67064696  .00366740  58521-4  74987-3 0  9998
2 12585  97.4647   7.8605 0001535 304.1271  55.9861 15.99409325424054
SL-3 R/B                
1 12904U 81103B   25304.65660014  .00006766  00000+0  31616-3 0  9995
2 12904  81.1624   4.6114 0017651  20.3756 339.8174 15.19517419953622
SL-3 R/B                
1 13068U 82013B   25304.60031781  .00005360  00000+0  24240-3 0  9990
2 13068  81.1736 311.9227 0021544 253.5305 106.3559 15.20539565384724
