CCSDS_OMM_VERS = 2.0
CREATION_DATE  = 
ORIGINATOR     = 

OBJECT_NAME    = ATLAS CENTAUR R/B
OBJECT_ID      = 1972-065B
CENTER_NAME    = EARTH
REF_FRAME      = TEME
TIME_SYSTEM    = UTC
MEAN_ELEMENT_THEORY = SGP/SGP4

EPOCH          = 2025-10-31T11:42:41.273280
MEAN_MOTION    = 14.77239010
ECCENTRICITY   = .0033787
INCLINATION    = 35.0028
RA_OF_ASC_NODE = 342.6690
ARG_OF_PERICENTER = 2.2962
MEAN_ANOMALY   = 357.7889

EPHEMERIS_TYPE = 0
CLASSIFICATION_TYPE = U
NORAD_CAT_ID   = 6155
ELEMENT_SET_NO = 999
REV_AT_EPOCH   = 82214
BSTAR          = .25372E-3
MEAN_MOTION_DOT = .1821E-4
MEAN_MOTION_DDOT = 0

CCSDS_OMM_VERS = 2.0
CREATION_DATE  = 
ORIGINATOR     = 

OBJECT_NAME    = SL-8 R/B
OBJECT_ID      = 1975-112B
CENTER_NAME    = EARTH
REF_FRAME      = TEME
TIME_SYSTEM    = UTC
MEAN_ELEMENT_THEORY = SGP/SGP4

EPOCH          = 2025-10-31T14:32:24.295200
MEAN_MOTION    = 14.38103787
ECCENTRICITY   = .0015253
INCLINATION    = 74.0599
RA_OF_ASC_NODE = 256.3521
ARG_OF_PERICENTER = 14.9874
MEAN_ANOMALY   = 345.1729

EPHEMERIS_TYPE = 0
CLASSIFICATION_TYPE = U
NORAD_CAT_ID   = 8459
ELEMENT_SET_NO = 999
REV_AT_EPOCH   = 61331
BSTAR          = .13442E-3
MEAN_MOTION_DOT = .382E-5
MEAN_MOTION_DDOT = 0

CCSDS_OMM_VERS = 2.0
CREATION_DATE  = 
ORIGINATOR     = 

OBJECT_NAME    = SL-3 R/B
OBJECT_ID      = 1977-057B
CENTER_NAME    = EARTH
REF_FRAME      = TEME
TIME_SYSTEM    = UTC
MEAN_ELEMENT_THEORY = SGP/SGP4

EPOCH          = 2025-10-31T13:59:07.192032
MEAN_MOTION    = 15.41614310
ECCENTRICITY   = .0008487
INCLINATION    = 97.5676
RA_OF_ASC_NODE = 106.3173
ARG_OF_PERICENTER = 36.5385
MEAN_ANOMALY   = 323.6438

EPHEMERIS_TYPE = 0
CLASSIFICATION_TYPE = U
NORAD_CAT_ID   = 10114
ELEMENT_SET_NO = 999
REV_AT_EPOCH   = 64841
BSTAR          = .33405E-3
MEAN_MOTION_DOT = .13993E-3
MEAN_MOTION_DDOT = 0

CCSDS_OMM_VERS = 2.0
CREATION_DATE  = 
ORIGINATOR     = 

OBJECT_NAME    = SEASAT 1
OBJECT_ID      = 1978-064A
CENTER_NAME    = EARTH
REF_FRAME      = TEME
TIME_SYSTEM    = UTC
MEAN_ELEMENT_THEORY = SGP/SGP4

EPOCH          = 2025-10-31T14:55:11.684064
MEAN_MOTION    = 14.45989308
ECCENTRICITY   = .0002584
INCLINATION    = 108.0049
RA_OF_ASC_NODE = 214.6906
ARG_OF_PERICENTER = 261.5832
MEAN_ANOMALY   = 98.5020

EPHEMERIS_TYPE = 0
CLASSIFICATION_TYPE = U
NORAD_CAT_ID   = 10967
ELEMENT_SET_NO = 999
REV_AT_EPOCH   = 48785
BSTAR          = .18843E-3
MEAN_MOTION_DOT = .535E-5
MEAN_MOTION_DDOT = 0

CCSDS_OMM_VERS = 2.0
CREATION_DATE  = 
ORIGINATOR     = 

OBJECT_NAME    = SL-14 R/B
OBJECT_ID      = 1979-011B
CENTER_NAME    = EARTH
REF_FRAME      = TEME
TIME_SYSTEM    = UTC
MEAN_ELEMENT_THEORY = SGP/SGP4

EPOCH          = 2025-10-31T06:15:22.299264
MEAN_MOTION    = 14.91689506
ECCENTRICITY   = .0017349
INCLINATION    = 82.5262
RA_OF_ASC_NODE = 219.3214
ARG_OF_PERICENTER = 126.1716
MEAN_ANOMALY   = 234.1112

EPHEMERIS_TYPE = 0
CLASSIFICATION_TYPE = U
NORAD_CAT_ID   = 11267
ELEMENT_SET_NO = 999
REV_AT_EPOCH   = 50948
BSTAR          = .87814E-4
MEAN_MOTION_DOT = .911E-5
MEAN_MOTION_DDOT = 0

CCSDS_OMM_VERS = 2.0
CREATION_DATE  = 
ORIGINATOR     = 

OBJECT_NAME    = SL-8 R/B
OBJECT_ID      = 1979-089B
CENTER_NAME    = EARTH
REF_FRAME      = TEME
TIME_SYSTEM    = UTC
MEAN_ELEMENT_THEORY = SGP/SGP4

EPOCH          = 2025-10-31T12:35:10.320000
MEAN_MOTION    = 14.42240302
ECCENTRICITY   = .0015559
INCLINATION    = 74.0689
RA_OF_ASC_NODE = 330.1144
ARG_OF_PERICENTER = 180.0942
MEAN_ANOMALY   = 180.0214

EPHEMERIS_TYPE = 0
CLASSIFICATION_TYPE = U
NORAD_CAT_ID   = 11574
ELEMENT_SET_NO = 999
REV_AT_EPOCH   = 41748
BSTAR          = .13295E-3
MEAN_MOTION_DOT = .413E-5
MEAN_MOTION_DDOT = 0

CCSDS_OMM_VERS = 2.0
CREATION_DATE  = 
ORIGINATOR     = 

OBJECT_NAME    = SL-14 R/B
OBJECT_ID      = 1980-005B
CENTER_NAME    = EARTH
REF_FRAME      = TEME
TIME_SYSTEM    = UTC
MEAN_ELEMENT_THEORY = SGP/SGP4

EPOCH          = 2025-10-31T14:11:34.830240
MEAN_MOTION    = 14.90703346
ECCENTRICITY   = .0014649
INCLINATION    = 82.5144
RA_OF_ASC_NODE = 69.6629
ARG_OF_PERICENTER = 230.7363
MEAN_ANOMALY   = 129.2558

EPHEMERIS_TYPE = 0
CLASSIFICATION_TYPE = U
NORAD_CAT_ID   = 11672
ELEMENT_SET_NO = 999
REV_AT_EPOCH   = 45725
BSTAR          = .10676E-3
MEAN_MOTION_DOT = .1074E-4
MEAN_MOTION_DDOT = 0

CCSDS_OMM_VERS = 2.0
CREATION_DATE  = 
ORIGINATOR     = 

OBJECT_NAME    = SL-8 R/B
OBJECT_ID      = 1981-003B
CENTER_NAME    = EARTH
REF_FRAME      = TEME
TIME_SYSTEM    = UTC
MEAN_ELEMENT_THEORY = SGP/SGP4

EPOCH          = 2025-10-31T13:03:01.429056
MEAN_MOTION    = 15.04743476
ECCENTRICITY   = .0284244
INCLINATION    = 82.9330
RA_OF_ASC_NODE = 48.9681
ARG_OF_PERICENTER = 266.1588
MEAN_ANOMALY   = 90.7103

EPHEMERIS_TYPE = 0
CLASSIFICATION_TYPE = U
NORAD_CAT_ID   = 12139
ELEMENT_SET_NO = 999
REV_AT_EPOCH   = 29521
BSTAR          = .72142E-3
MEAN_MOTION_DOT = .25713E-3
MEAN_MOTION_DDOT = 0

CCSDS_OMM_VERS = 2.0
CREATION_DATE  = 
ORIGINATOR     = 

OBJECT_NAME    = SL-3 R/B
OBJECT_ID      = 1981-046B
CENTER_NAME    = EARTH
REF_FRAME      = TEME
TIME_SYSTEM    = UTC
MEAN_ELEMENT_THEORY = SGP/SGP4

EPOCH          = 2025-10-31T15:02:58.295040
MEAN_MOTION    = 15.38305850
ECCENTRICITY   = .002085
INCLINATION    = 81.2311
RA_OF_ASC_NODE = 84.2600
ARG_OF_PERICENTER = 107.9470
MEAN_ANOMALY   = 252.4046

EPHEMERIS_TYPE = 0
CLASSIFICATION_TYPE = U
NORAD_CAT_ID   = 12465
ELEMENT_SET_NO = 999
REV_AT_EPOCH   = 41856
BSTAR          = .41459E-3
MEAN_MOTION_DOT = .15807E-3
MEAN_MOTION_DDOT = 0

CCSDS_OMM_VERS = 2.0
CREATION_DATE  = 
ORIGINATOR     = 

OBJECT_NAME    = METEOR PRIRODA
OBJECT_ID      = 1981-065A
CENTER_NAME    = EARTH
REF_FRAME      = TEME
TIME_SYSTEM    = UTC
MEAN_ELEMENT_THEORY = SGP/SGP4

EPOCH          = 2025-10-31T16:05:43.897344
MEAN_MOTION    = 15.99409325
ECCENTRICITY   = .0001535
INCLINATION    = 97.4647
RA_OF_ASC_NODE = 7.8605
ARG_OF_PERICENTER = 304.1271
MEAN_ANOMALY   = 55.9861

EPHEMERIS_TYPE = 0
CLASSIFICATION_TYPE = U
NORAD_CAT_ID   = 12585
ELEMENT_SET_NO = 999
REV_AT_EPOCH   = 42405
BSTAR          = .74987E-3
MEAN_MOTION_DOT = .36674E-2
MEAN_MOTION_DDOT = .58521E-4

CCSDS_OMM_VERS = 2.0
CREATION_DATE  = 
ORIGINATOR     = 

OBJECT_NAME    = SL-3 R/B
OBJECT_ID      = 1981-103B
CENTER_NAME    = EARTH
REF_FRAME      = TEME
TIME_SYSTEM    = UTC
MEAN_ELEMENT_THEORY = SGP/SGP4

EPOCH          = 2025-10-31T15:45:30.252096
MEAN_MOTION    = 15.19517419
ECCENTRICITY   = .0017651
INCLINATION    = 81.1624
RA_OF_ASC_NODE = 4.6114
ARG_OF_PERICENTER = 20.3756
MEAN_ANOMALY   = 339.8174

EPHEMERIS_TYPE = 0
CLASSIFICATION_TYPE = U
NORAD_CAT_ID   = 12904
ELEMENT_SET_NO = 999
REV_AT_EPOCH   = 95362
BSTAR          = .31616E-3
MEAN_MOTION_DOT = .6766E-4
MEAN_MOTION_DDOT = 0

CCSDS_OMM_VERS = 2.0
CREATION_DATE  = 
ORIGINATOR     = 

OBJECT_NAME    = SL-3 R/B
OBJECT_ID      = 1982-013B
CENTER_NAME    = EARTH
REF_FRAME      = TEME
TIME_SYSTEM    = UTC
MEAN_ELEMENT_THEORY = SGP/SGP4

EPOCH          = 2025-10-31T14:24:27.458784
MEAN_MOTION    = 15.20539565
ECCENTRICITY   = .0021544
INCLINATION    = 81.1736
RA_OF_ASC_NODE = 311.9227
ARG_OF_PERICENTER = 253.5305
MEAN_ANOMALY   = 106.3559

EPHEMERIS_TYPE = 0
CLASSIFICATION_TYPE = U
NORAD_CAT_ID   = 13068
ELEMENT_SET_NO = 999
REV_AT_EPOCH   = 38472
BSTAR          = .2424E-3
MEAN_MOTION_DOT = .536E-4
MEAN_MOTION_DDOT = 0

